{
    "links": {
        "self": "http://www.neowsapp.com/rest/v1/neo/3739156?api_key=iIulBulltgU6a56xZRHN4H3l9WmuAYTsLGpBGhQ2"
    },
    "id": "3739156",
    "neo_reference_id": "3739156",
    "name": "(2016 AG2)",
    "designation": "2016 AG2",
    "nasa_jpl_url": "http://ssd.jpl.nasa.gov/sbdb.cgi?sstr=3739156",
    "absolute_magnitude_h": 23.7,
    "estimated_diameter": {
        "kilometers": {
            "estimated_diameter_min": 0.0483676488,
            "estimated_diameter_max": 0.1081533507
        },
        "meters": {
            "estimated_diameter_min": 48.3676488219,
            "estimated_diameter_max": 108.1533506775
        },
        "miles": {
            "estimated_diameter_min": 0.0300542543,
            "estimated_diameter_max": 0.0672033557
        },
        "feet": {
            "estimated_diameter_min": 158.6865169607,
            "estimated_diameter_max": 354.8338390368
        }
    },
    "is_potentially_hazardous_asteroid": false,
    "close_approach_data": [
        {
            "close_approach_date": "2004-08-10",
            "close_approach_date_full": "2004-Aug-10 17:00",
            "epoch_date_close_approach": 1092157200000,
            "relative_velocity": {
                "kilometers_per_second": "17.5246556442",
                "kilometers_per_hour": "63088.760318972",
                "miles_per_hour": "39200.902210419"
            },
            "miss_distance": {
                "astronomical": "0.4767620694",
                "lunar": "185.4604449966",
                "kilometers": "71322590.079032178",
                "miles": "44317802.4313049364"
            },
            "orbiting_body": "Earth"
        },
        {
            "close_approach_date": "2009-01-10",
            "close_approach_date_full": "2009-Jan-10 23:32",
            "epoch_date_close_approach": 1231630320000,
            "relative_velocity": {
                "kilometers_per_second": "19.7518741525",
                "kilometers_per_hour": "71106.7469488452",
                "miles_per_hour": "44182.9672916311"
            },
            "miss_distance": {
                "astronomical": "0.454406766",
                "lunar": "176.764231974",
                "kilometers": "67978284.30718842",
                "miles": "42239747.185383396"
            },
            "orbiting_body": "Earth"
        },
        {
            "close_approach_date": "2015-08-05",
            "close_approach_date_full": "2015-Aug-05 14:22",
            "epoch_date_close_approach": 1438784520000,
            "relative_velocity": {
                "kilometers_per_second": "9.8517136928",
                "kilometers_per_hour": "35466.1692940728",
                "miles_per_hour": "22037.2983594198"
            },
            "miss_distance": {
                "astronomical": "0.2340047561",
                "lunar": "91.0278501229",
                "kilometers": "35006613.082429507",
                "miles": "21752100.7111089166"
            },
            "orbiting_body": "Earth"
        },
        {
            "close_approach_date": "2015-12-31",
            "close_approach_date_full": "2015-Dec-31 08:43",
            "epoch_date_close_approach": 1451551380000,
            "relative_velocity": {
                "kilometers_per_second": "9.8746269055",
                "kilometers_per_hour": "35548.6568596447",
                "miles_per_hour": "22088.5529248165"
            },
            "miss_distance": {
                "astronomical": "0.1010839463",
                "lunar": "39.3216551107",
                "kilometers": "15121943.057674381",
                "miles": "9396339.7019772178"
            },
            "orbiting_body": "Earth"
        },
        {
            "close_approach_date": "2027-01-09",
            "close_approach_date_full": "2027-Jan-09 13:45",
            "epoch_date_close_approach": 1799502300000,
            "relative_velocity": {
                "kilometers_per_second": "18.3340831554",
                "kilometers_per_hour": "66002.6993595847",
                "miles_per_hour": "41011.5106104042"
            },
            "miss_distance": {
                "astronomical": "0.3997148177",
                "lunar": "155.4890640853",
                "kilometers": "59796485.335358299",
                "miles": "37155813.0494465662"
            },
            "orbiting_body": "Earth"
        }
    ],
    "orbital_data": {
        "orbit_id": "5",
        "orbit_determination_date": "2017-04-06 08:29:30",
        "first_observation_date": "2016-01-01",
        "last_observation_date": "2016-01-14",
        "data_arc_in_days": 13,
        "observations_used": 33,
        "orbit_uncertainty": "7",
        "minimum_orbit_intersection": ".0860324",
        "jupiter_tisserand_invariant": "5.100",
        "epoch_osculation": "2459000.5",
        "eccentricity": ".2089808623321759",
        "semi_major_axis": "1.24178869905585",
        "inclination": "17.74116380383207",
        "ascending_node_longitude": "286.3564917145064",
        "orbital_period": "505.4404342571864",
        "perihelion_distance": ".9822786258928078",
        "perihelion_argument": "118.0272577535838",
        "aphelion_distance": "1.501298772218893",
        "perihelion_time": "2458849.676140642497",
        "mean_anomaly": "107.4243089564",
        "mean_motion": ".7122501003091869",
        "equinox": "J2000",
        "orbit_class": {
            "orbit_class_type": "APO",
            "orbit_class_description": "Near-Earth asteroid orbits which cross the Earth’s orbit similar to that of 1862 Apollo",
            "orbit_class_range": "a (semi-major axis) > 1.0 AU; q (perihelion) < 1.017 AU"
        }
    },
    "is_sentry_object": false
}